[{"OBJECT_NAME":"HERMES-3","OBJECT_ID":"2025-052BR","EPOCH":"2026-03-09T22:30:01.073952","MEAN_MOTION":15.30039786,"ECCENTRICITY":0.00079928,"INCLINATION":97.3987,"RA_OF_ASC_NODE":324.6131,"ARG_OF_PERICENTER":112.9583,"MEAN_ANOMALY":247.2502,"EPHEMERIS_TYPE":0,"CLASSIFICATION_TYPE":"U","NORAD_CAT_ID":63835,"ELEMENT_SET_NO":999,"REV_AT_EPOCH":5486,"BSTAR":0.0006995793,"MEAN_MOTION_DOT":0.00020316,"MEAN_MOTION_DDOT":0},{"OBJECT_NAME":"STARLINK-34242","OBJECT_ID":"2025-144D","EPOCH":"2026-03-09T14:16:25.231008","MEAN_MOTION":15.30191851,"ECCENTRICITY":9.09e-5,"INCLINATION":53.1578,"RA_OF_ASC_NODE":181.7478,"ARG_OF_PERICENTER":75.9215,"MEAN_ANOMALY":284.1886,"EPHEMERIS_TYPE":0,"CLASSIFICATION_TYPE":"U","NORAD_CAT_ID":64727,"ELEMENT_SET_NO":999,"REV_AT_EPOCH":3969,"BSTAR":0.00092478,"MEAN_MOTION_DOT":0.00027123,"MEAN_MOTION_DDOT":0}]
