HERMES-3                
1 63835U 25052BR  26068.93751242  .00020316  00000+0  69958-3 0  9995
2 63835  97.3987 324.6131 0007993 112.9583 247.2502 15.30039785 54863
STARLINK-34242          
1 64727U 25144D   26068.59473647  .00027123  00000+0  92478-3 0  9996
2 64727  53.1578 181.7478 0000909  75.9215 284.1886 15.30191851 39698
